C/2019 K6 PANSTARRS                            2020 05 19.6761  3.921409       0.996939 187.5370  43.0020 132.3796  11.5   4.0
C/2019 K7 Smith                                2020 06 17.6454  4.478081       1.000972  27.4076 307.9906 103.5164   6.0   4.0
C/2019 K8 ATLAS                                2019 07 21.4176  3.194490       0.998567  85.3616 291.0220  93.1087  11.5   4.0
C/2019 L1 PANSTARRS                            2019 08 09.7771  2.902115       0.704931  50.0598 254.4289   9.9759  13.5   4.0
C/2019 L2 NEOWISE                              2019 04 02.4352  1.625955       0.935202  18.8616  12.5540 152.2020  16.0   4.0
P/2019 LD2 ATLAS                               2020 02 22.4398  4.544183       0.126880 118.6880 179.4953  11.6098   8.5   4.0
C/2019 L3 ATLAS                                2022 01 09.7819  3.554841       1.002425 171.6492 290.7569  48.3453   4.5   4.0
P/2019 LM4 Palomar                             2019 06 18.1279  2.366355       0.585220  68.2772  72.8388  36.4162   9.5   4.0
C/2019 LB7 Kleyna                              2019 03 26.4116  2.494482       0.928336 336.6446   3.9087 164.2897  17.0   4.0
P/2019 M2 ATLAS                                2024 09 28.1748  1.068596       0.647286 332.5549 307.5892  12.2689  21.2   4.0
C/2019 M3 ATLAS                                2018 12 31.5067  2.424046       0.999523  87.9133 154.9613  99.5530  12.2   4.0
C/2019 M4 TESS                                 2019 09 11.8461  9.189604       1.002794 260.3721  52.6492  65.6786   5.0   4.0
C/2019 N1 ATLAS                                2020 12 01.0093  1.704750       0.998632 193.3876  13.5640  82.4428   7.5   4.0
A/2019 N2                                      2019 08 22.6832  1.946395       0.998687 347.1693 276.1683  89.3591  12.5   2.0
C/2019 NJ3 Lemmon                              2020 10 22.7582  4.363496       1.001949 246.8952 142.4807  99.3975   9.0   4.0
A/2019 O2                                      2023 04 06.7473  9.682564       0.833756 129.6163  48.2577  93.3123   9.5   2.0
C/2019 O3 Palomar                              2021 03 09.6137  8.821361       1.004288  60.1326 300.4421  89.8133   3.5   4.0
A/2019 O4                                      2020 02 10.8554  3.646833       0.890317  61.8730 354.9277 115.0763  15.5   2.0
C/2019 Q1 Lemmon                               2020 07 21.1969  5.004672       1.001430  56.2312  42.4564 155.7314   8.5   4.0
A/2019 Q2                                      2019 07 22.4082  1.263757       0.978311 176.4401 188.0325 159.0191  18.0   2.0
P/2019 S2 PANSTARRS                            2019 02 20.5573  3.771017       0.205199 217.0984  93.1871  10.4651  13.5   4.0
P/2019 S3 PANSTARRS                            2025 12 18.9591  1.806462       0.471059 213.0573 150.1687   8.6942  18.3   4.0
C/2019 S4 Lemmon                               2020 04 08.3438  3.442034       0.985571  71.3714  63.1578  92.1017  11.0   4.0
A/2019 T1                                      2021 01 14.9731  4.279874       0.889783  91.0571   6.9444 120.8665  13.0   2.0
C/2019 T2 Lemmon                               2021 04 22.6406  2.645579       0.999474 239.4275 155.6546 111.4488   9.0   4.0
C/2019 T3 ATLAS                                2021 03 04.3034  5.952406       0.998252 112.4578 139.5325 121.8401   6.8   4.0
C/2019 T4 ATLAS                                2022 06 08.7793  4.240832       0.995334 351.1416 199.9363  53.6305   5.0   4.0
P/2019 T5 ATLAS                                2019 08 02.4218  1.521995       0.809755 189.5787 247.6147  33.4906  15.0   4.0
P/2019 T6 PANSTARRS                            2019 11 08.9273  2.050363       0.623052 328.9980  71.2511  18.6981  15.5   4.0
P/2019 U4 PANSTARRS                            2026 04 28.2282  1.844402       0.476000 181.0359 200.0200  11.6986  19.0   4.0
C/2019 U5 PANSTARRS                            2023 03 29.7422  3.623979       1.001103 181.4762   2.6343 113.5161   4.5   4.0
C/2019 U6 Lemmon                               2020 06 18.3033  0.911728       0.997185 329.5192 235.7861  60.9672  10.0   4.0
C/2019 V1 Borisov                              2020 07 16.6878  3.093702       0.998206  51.1696  83.1528  61.9275  11.0   4.0
P/2019 V2 Groeller                             2020 10 16.8502  5.013351       0.331251 335.6729 189.1786  11.8077  10.0   4.0
P/2019 W1 PANSTARRS                            2019 05 10.1035  3.333095       0.267270  18.7746  35.3764  23.4753  12.9   4.0
P/2019 X1 Pruyne                               2019 07 22.9506  4.298778       0.303890  36.8344  43.6794  10.2504  10.4   4.0
P/2019 X2 Pan-STARRS                           2026 11 15.5008  1.818035       0.500011 213.4504 250.8394  15.8951  18.0   4.0
C/2019 Y1 ATLAS                                2020 03 16.3433  0.828231       0.990488  57.9131  31.5415  73.3793  13.7   4.0
P/2019 Y3 Catalina                             2025 03 03.2034  0.930913       0.691146   2.5826 139.3063  24.6029  18.5   4.0
C/2019 Y4 ATLAS                                2020 05 30.6527  0.256018       0.999266 177.4468 120.7048  45.1263  11.8   6.0
C/2019 Y4-A ATLAS                              2020 05 30.6842  0.254172       1.001414 177.2802 121.0680  45.5669  11.6   6.0
C/2019 Y4-B ATLAS                              2020 05 30.6591  0.255486       1.000011 177.3908 120.8114  45.2564  12.1   6.0
C/2019 Y4-C ATLAS                              2020 05 30.6371  0.255245       1.002139 177.3135 120.7948  45.3496  12.7   6.0
C/2019 Y4-D ATLAS                              2020 05 30.7600  0.254559       0.996270 177.4523 121.1653  45.3966  12.5   6.0
C/2019 Y5 PANSTARRS                            2019 08 17.6071  4.923797       0.993240 303.5929  51.7508  82.7617  11.0   4.0
A/2020 A1                                      2019 12 01.8020  1.666706       0.934806 302.4552 119.1608 149.0345  18.0   2.0
C/2020 A2 Iwamoto                              2020 01 08.3239  0.973737       0.999219  68.0527 286.2604 120.5835  13.5   4.0
C/2020 A3 ATLAS                                2019 06 28.6724  5.756938       1.000378 268.3253 120.8049 146.6525   8.0   4.0
P/2020 A4 PANSTARRS-Lemmon                     2019 11 23.4251  2.833592       0.654255 144.7834 312.3567  24.9919  15.0   4.0
A/2020 B1                                      2019 12 26.7386  1.739140       0.966276 154.7376 309.9219  18.5223  21.0   2.0
C/2020 B2 Lemmon                               2020 01 26.6831  2.759341       0.959224 143.5975 354.2795  55.7528  10.0   4.0
C/2020 B3 Rankin                               2019 10 19.6782  3.332886       0.996456 324.8859 185.8311  20.7087  13.0   4.0
P/2020 B4 Sheppard                             2021 11 18.3680  6.437287       0.192059 342.0044 185.9759  11.6079  10.5   4.0
C/2020 F2 ATLAS                                2022 07 14.1877  8.815630       1.004898  48.3019 250.2996 163.5893   4.5   4.0
C/2020 F3 NEOWISE                              2020 07 04.0540  0.295056       0.999211  37.3883  61.0892 129.1370   7.5   5.2
C/2020 F5 MASTER                               2021 03 17.1505  4.326003       0.974818 310.6788 350.5017  52.2073   6.5   3.2
C/2020 F6 PANSTARRS                            2020 04 11.5231  3.502232       0.990876 344.4869 207.8987 174.5831  14.5   2.8
C/2020 F7 Lemmon                               2021 11 13.6390  5.332435       0.990468 227.9486 321.8564  93.9559   7.0   4.0
C/2020 F8 SWAN                                 2020 05 26.9810  0.429914       1.000155  68.0756 259.8434 110.5914  10.0   4.0
P/2020 G1 Pimentel                             2027 01 24.1252  0.502932       0.860602 207.6167 240.1082  18.5102  17.0   4.0
C/2020 H2 Pruyne                               2020 04 27.7567  0.830104       0.995548  26.6393 277.6696 124.8562  14.0   3.2
C/2020 H3 Wierzchos                            2020 06 05.7162  2.300288       1.000000  30.4456 270.6227  62.5292  13.5   4.0
C/2020 H4 Leonard                              2020 08 29.6114  0.924598       0.980666 117.5156 307.6101  84.4984  15.0   3.2
C/2020 H5 Robinson                             2020 12 10.3291  9.339917       0.997842 326.3075 210.6273  70.2550   5.0   4.0
C/2020 H6 ATLAS                                2021 09 30.3559  4.700625       0.998830  20.2683 213.7197  79.9780   8.0   3.2
C/2020 H7 Lemmon                               2020 06 02.9510  4.419545       0.996854  82.6780 323.5194 135.9235  11.0   4.0
C/2020 H8 PANSTARRS                            2020 06 04.5586  4.672484       0.992213 128.9133  68.4380  99.7011  10.5   4.0
A/2020 H9                                      2019 12 21.8337  2.570064       0.992964 312.7824 213.1816 137.8791  18.0   2.0
C/2020 H11 PANSTARRS-Lemmon                    2020 09 14.5254  7.625019       1.001741  91.4400 303.0446 151.3925   8.5   4.0
C/2020 J1 SONEAR                               2021 04 18.5658  3.350844       1.000557 341.7045 226.6104 142.3059   8.5   3.2
C/2020 K1 PANSTARRS                            2023 05 09.0711  3.073352       0.999760 213.9834  94.3606  89.6733   5.5   4.0
C/2020 K2 PANSTARRS                            2020 08 06.0598  8.880592       1.002899  67.3473 288.4078  91.0102  10.8   4.0
C/2020 K3 Leonard                              2020 06 01.0032  1.583069       1.000000  64.4924  28.3546 129.0152  14.5   4.0
C/2020 K4 PANSTARRS                            2020 03 04.2428  1.751716       0.926922 308.8627 264.2367 125.5851  16.5   4.0
C/2020 K5 PANSTARRS                            2021 06 05.2515  1.537767       1.001231 249.6240  86.1534  67.0922  11.0   4.0
C/2020 K6 Rankin                               2021 09 15.7244  5.868519       1.003491  44.3324 291.5715 103.6456   8.0   4.0
C/2020 K7 PANSTARRS                            2019 10 27.3721  6.394201       0.934270 358.2200 286.0992  32.0438   8.0   4.0
C/2020 K8 Catalina-ATLAS                       2020 09 15.1008  0.471293       1.000223 259.9684 181.5053  31.4456  15.0   3.2
